{
  "type": "FeatureCollection",
  "features": [
    {
      "type": "Feature",
      "properties": {
        "name": "Brickell",
        "color": "#3a3a3a",
        "description": "Financial district with luxury high-rises"
      },
      "geometry": {
        "type": "Polygon",
        "coordinates": [[
          [-80.2050, 25.7489],
          [-80.1890, 25.7489],
          [-80.1890, 25.7650],
          [-80.2050, 25.7650],
          [-80.2050, 25.7489]
        ]]
      }
    },
    {
      "type": "Feature",
      "properties": {
        "name": "Downtown Miami",
        "color": "#494849",
        "description": "Urban core and cultural center"
      },
      "geometry": {
        "type": "Polygon",
        "coordinates": [[
          [-80.2000, 25.7700],
          [-80.1820, 25.7700],
          [-80.1820, 25.7850],
          [-80.2000, 25.7850],
          [-80.2000, 25.7700]
        ]]
      }
    },
    {
      "type": "Feature",
      "properties": {
        "name": "Wynwood",
        "color": "#6b6b6b",
        "description": "Arts and culture neighborhood"
      },
      "geometry": {
        "type": "Polygon",
        "coordinates": [[
          [-80.1990, 25.7950],
          [-80.1760, 25.7950],
          [-80.1760, 25.8100],
          [-80.1990, 25.8100],
          [-80.1990, 25.7950]
        ]]
      }
    },
    {
      "type": "Feature",
      "properties": {
        "name": "Design District",
        "color": "#8e8e8e",
        "description": "Luxury shopping and design hub"
      },
      "geometry": {
        "type": "Polygon",
        "coordinates": [[
          [-80.2050, 25.8050],
          [-80.1850, 25.8050],
          [-80.1850, 25.8200],
          [-80.2050, 25.8200],
          [-80.2050, 25.8050]
        ]]
      }
    },
    {
      "type": "Feature",
      "properties": {
        "name": "Midtown Miami",
        "color": "#aaaaaa",
        "description": "Mixed-use residential area"
      },
      "geometry": {
        "type": "Polygon",
        "coordinates": [[
          [-80.1950, 25.8200],
          [-80.1700, 25.8200],
          [-80.1700, 25.8350],
          [-80.1950, 25.8350],
          [-80.1950, 25.8200]
        ]]
      }
    },
    {
      "type": "Feature",
      "properties": {
        "name": "Coconut Grove",
        "color": "#c8c8c8",
        "description": "Bohemian village with boutiques"
      },
      "geometry": {
        "type": "Polygon",
        "coordinates": [[
          [-80.2900, 25.7200],
          [-80.2450, 25.7200],
          [-80.2450, 25.7480],
          [-80.2900, 25.7480],
          [-80.2900, 25.7200]
        ]]
      }
    },
    {
      "type": "Feature",
      "properties": {
        "name": "Allapattah",
        "color": "#5a5a5a",
        "description": "Emerging residential neighborhood"
      },
      "geometry": {
        "type": "Polygon",
        "coordinates": [[
          [-80.2300, 25.7600],
          [-80.2050, 25.7600],
          [-80.2050, 25.7800],
          [-80.2300, 25.7800],
          [-80.2300, 25.7600]
        ]]
      }
    }
  ]
}
